STARLINK-3273           
1 50191U 21125AM  23169.91946581  .00018594  00000+0  11831-2 0  9993
2 50191  53.2165  44.8159 0001189  70.5554 289.5567 15.08846497 83191
STARLINK-3259           
1 50192U 21125AN  23170.03905627 -.00000078  00000+0  13155-4 0  9997
2 50192  53.2181  24.2789 0001013  83.7959 276.3149 15.08841481 83482
STARLINK-3261           
1 50193U 21125AP  23169.98385470 -.00000726  00000+0 -27543-4 0  9995
2 50193  53.2188  24.5276 0001008  73.9151 286.1952 15.08845170 86082
STARLINK-3269           
1 50194U 21125AQ  23170.03633538  .00001754  00000+0  12824-3 0  9990
2 50194  53.2177  24.3024 0000671  64.0442 296.0619 15.08840993 86098
STARLINK-3266           
1 50195U 21125AR  23169.98017952 -.00000255  00000+0  20854-5 0  9999
2 50195  53.2181  24.5455 0001328  88.2959 271.8185 15.08840257 86086
STARLINK-3263           
1 50196U 21125AS  23170.03265584  .00000677  00000+0  60586-4 0  9996
2 50196  53.2182  24.3581 0000842  67.0791 293.0290 15.08846562 86094
STARLINK-3267           
1 50197U 21125AT  23170.03169196  .00000421  00000+0  44490-4 0  9992
2 50197  53.2186  24.3122 0000935  84.2243 275.8855 15.08846236 86099
STARLINK-3264           
1 50198U 21125AU  23170.01696463 -.00002913  00000+0 -16486-3 0  9996
2 50198  53.2182  24.3798 0001596  85.5819 274.5356 15.08864071 86091
STARLINK-3270           
1 50199U 21125AV  23169.99857129  .00000786  00000+0  67466-4 0  9999
2 50199  53.2180  24.4622 0001051  78.2879 281.8231 15.08847819 86081
STARLINK-3235           
1 50200U 21125AW  23170.02529142 -.00000697  00000+0 -25697-4 0  9992
2 50200  53.2186  24.3504 0001073  79.1544 280.9569 15.08845534 86098
STARLINK-3255           
1 50201U 21125AX  23170.01424117 -.00000381  00000+0 -58708-5 0  9998
2 50201  53.2179  24.3999 0000920  95.5331 264.5766 15.08852541 86098
STARLINK-3256           
1 50202U 21125AY  23169.86241490  .00002014  00000+0  14458-3 0  9996
2 50202  53.2169  25.0725 0001064  77.8304 282.2807 15.08842356 86542
STARLINK-3257           
1 50203U 21125AZ  23170.02064350  .00000931  00000+0  76559-4 0  9992
2 50203  53.2189  24.3605 0001058  92.6972 267.4141 15.08850423 83494
STARLINK-3254           
1 50204U 21125BA  23169.87072486  .00002958  00000+0  20379-3 0  9992
2 50204  53.2168  25.0455 0000985  97.6051 262.5053 15.08847916 86601
