[{
    "OBJECT_NAME": "STARLINK-3273",
    "OBJECT_ID": "2021-125AM",
    "EPOCH": "2023-06-18T22:04:01.845984",
    "MEAN_MOTION": 15.08846497,
    "ECCENTRICITY": 0.0001189,
    "INCLINATION": 53.2165,
    "RA_OF_ASC_NODE": 44.8159,
    "ARG_OF_PERICENTER": 70.5554,
    "MEAN_ANOMALY": 289.5567,
    "EPHEMERIS_TYPE": 0,
    "CLASSIFICATION_TYPE": "U",
    "NORAD_CAT_ID": 50191,
    "ELEMENT_SET_NO": 999,
    "REV_AT_EPOCH": 8319,
    "BSTAR": 0.0011831,
    "MEAN_MOTION_DOT": 0.00018594,
    "MEAN_MOTION_DDOT": 0
},{
    "OBJECT_NAME": "STARLINK-3259",
    "OBJECT_ID": "2021-125AN",
    "EPOCH": "2023-06-19T00:56:14.461728",
    "MEAN_MOTION": 15.08841481,
    "ECCENTRICITY": 0.0001013,
    "INCLINATION": 53.2181,
    "RA_OF_ASC_NODE": 24.2789,
    "ARG_OF_PERICENTER": 83.7959,
    "MEAN_ANOMALY": 276.3149,
    "EPHEMERIS_TYPE": 0,
    "CLASSIFICATION_TYPE": "U",
    "NORAD_CAT_ID": 50192,
    "ELEMENT_SET_NO": 999,
    "REV_AT_EPOCH": 8348,
    "BSTAR": 1.3155e-5,
    "MEAN_MOTION_DOT": -7.8e-7,
    "MEAN_MOTION_DDOT": 0
},{
    "OBJECT_NAME": "STARLINK-3261",
    "OBJECT_ID": "2021-125AP",
    "EPOCH": "2023-06-18T23:36:45.046080",
    "MEAN_MOTION": 15.0884517,
    "ECCENTRICITY": 0.0001008,
    "INCLINATION": 53.2188,
    "RA_OF_ASC_NODE": 24.5276,
    "ARG_OF_PERICENTER": 73.9151,
    "MEAN_ANOMALY": 286.1952,
    "EPHEMERIS_TYPE": 0,
    "CLASSIFICATION_TYPE": "U",
    "NORAD_CAT_ID": 50193,
    "ELEMENT_SET_NO": 999,
    "REV_AT_EPOCH": 8608,
    "BSTAR": -2.7543e-5,
    "MEAN_MOTION_DOT": -7.26e-6,
    "MEAN_MOTION_DDOT": 0
},{
    "OBJECT_NAME": "STARLINK-3269",
    "OBJECT_ID": "2021-125AQ",
    "EPOCH": "2023-06-19T00:52:19.376832",
    "MEAN_MOTION": 15.08840993,
    "ECCENTRICITY": 6.71e-5,
    "INCLINATION": 53.2177,
    "RA_OF_ASC_NODE": 24.3024,
    "ARG_OF_PERICENTER": 64.0442,
    "MEAN_ANOMALY": 296.0619,
    "EPHEMERIS_TYPE": 0,
    "CLASSIFICATION_TYPE": "U",
    "NORAD_CAT_ID": 50194,
    "ELEMENT_SET_NO": 999,
    "REV_AT_EPOCH": 8609,
    "BSTAR": 0.00012824,
    "MEAN_MOTION_DOT": 1.754e-5,
    "MEAN_MOTION_DDOT": 0
},{
    "OBJECT_NAME": "STARLINK-3266",
    "OBJECT_ID": "2021-125AR",
    "EPOCH": "2023-06-18T23:31:27.510528",
    "MEAN_MOTION": 15.08840257,
    "ECCENTRICITY": 0.0001328,
    "INCLINATION": 53.2181,
    "RA_OF_ASC_NODE": 24.5455,
    "ARG_OF_PERICENTER": 88.2959,
    "MEAN_ANOMALY": 271.8185,
    "EPHEMERIS_TYPE": 0,
    "CLASSIFICATION_TYPE": "U",
    "NORAD_CAT_ID": 50195,
    "ELEMENT_SET_NO": 999,
    "REV_AT_EPOCH": 8608,
    "BSTAR": 2.0854e-6,
    "MEAN_MOTION_DOT": -2.55e-6,
    "MEAN_MOTION_DDOT": 0
},{
    "OBJECT_NAME": "STARLINK-3263",
    "OBJECT_ID": "2021-125AS",
    "EPOCH": "2023-06-19T00:47:01.464576",
    "MEAN_MOTION": 15.08846562,
    "ECCENTRICITY": 8.42e-5,
    "INCLINATION": 53.2182,
    "RA_OF_ASC_NODE": 24.3581,
    "ARG_OF_PERICENTER": 67.0791,
    "MEAN_ANOMALY": 293.029,
    "EPHEMERIS_TYPE": 0,
    "CLASSIFICATION_TYPE": "U",
    "NORAD_CAT_ID": 50196,
    "ELEMENT_SET_NO": 999,
    "REV_AT_EPOCH": 8609,
    "BSTAR": 6.0586e-5,
    "MEAN_MOTION_DOT": 6.77e-6,
    "MEAN_MOTION_DDOT": 0
},{
    "OBJECT_NAME": "STARLINK-3267",
    "OBJECT_ID": "2021-125AT",
    "EPOCH": "2023-06-19T00:45:38.185344",
    "MEAN_MOTION": 15.08846236,
    "ECCENTRICITY": 9.35e-5,
    "INCLINATION": 53.2186,
    "RA_OF_ASC_NODE": 24.3122,
    "ARG_OF_PERICENTER": 84.2243,
    "MEAN_ANOMALY": 275.8855,
    "EPHEMERIS_TYPE": 0,
    "CLASSIFICATION_TYPE": "U",
    "NORAD_CAT_ID": 50197,
    "ELEMENT_SET_NO": 999,
    "REV_AT_EPOCH": 8609,
    "BSTAR": 4.449e-5,
    "MEAN_MOTION_DOT": 4.21e-6,
    "MEAN_MOTION_DDOT": 0
},{
    "OBJECT_NAME": "STARLINK-3264",
    "OBJECT_ID": "2021-125AU",
    "EPOCH": "2023-06-19T00:24:25.744032",
    "MEAN_MOTION": 15.08864071,
    "ECCENTRICITY": 0.0001596,
    "INCLINATION": 53.2182,
    "RA_OF_ASC_NODE": 24.3798,
    "ARG_OF_PERICENTER": 85.5819,
    "MEAN_ANOMALY": 274.5356,
    "EPHEMERIS_TYPE": 0,
    "CLASSIFICATION_TYPE": "U",
    "NORAD_CAT_ID": 50198,
    "ELEMENT_SET_NO": 999,
    "REV_AT_EPOCH": 8609,
    "BSTAR": -0.00016486,
    "MEAN_MOTION_DOT": -2.913e-5,
    "MEAN_MOTION_DDOT": 0
},{
    "OBJECT_NAME": "STARLINK-3270",
    "OBJECT_ID": "2021-125AV",
    "EPOCH": "2023-06-18T23:57:56.559456",
    "MEAN_MOTION": 15.08847819,
    "ECCENTRICITY": 0.0001051,
    "INCLINATION": 53.218,
    "RA_OF_ASC_NODE": 24.4622,
    "ARG_OF_PERICENTER": 78.2879,
    "MEAN_ANOMALY": 281.8231,
    "EPHEMERIS_TYPE": 0,
    "CLASSIFICATION_TYPE": "U",
    "NORAD_CAT_ID": 50199,
    "ELEMENT_SET_NO": 999,
    "REV_AT_EPOCH": 8608,
    "BSTAR": 6.7466e-5,
    "MEAN_MOTION_DOT": 7.86e-6,
    "MEAN_MOTION_DDOT": 0
},{
    "OBJECT_NAME": "STARLINK-3235",
    "OBJECT_ID": "2021-125AW",
    "EPOCH": "2023-06-19T00:36:25.178688",
    "MEAN_MOTION": 15.08845534,
    "ECCENTRICITY": 0.0001073,
    "INCLINATION": 53.2186,
    "RA_OF_ASC_NODE": 24.3504,
    "ARG_OF_PERICENTER": 79.1544,
    "MEAN_ANOMALY": 280.9569,
    "EPHEMERIS_TYPE": 0,
    "CLASSIFICATION_TYPE": "U",
    "NORAD_CAT_ID": 50200,
    "ELEMENT_SET_NO": 999,
    "REV_AT_EPOCH": 8609,
    "BSTAR": -2.5697e-5,
    "MEAN_MOTION_DOT": -6.97e-6,
    "MEAN_MOTION_DDOT": 0
},{
    "OBJECT_NAME": "STARLINK-3255",
    "OBJECT_ID": "2021-125AX",
    "EPOCH": "2023-06-19T00:20:30.437088",
    "MEAN_MOTION": 15.08852541,
    "ECCENTRICITY": 9.2e-5,
    "INCLINATION": 53.2179,
    "RA_OF_ASC_NODE": 24.3999,
    "ARG_OF_PERICENTER": 95.5331,
    "MEAN_ANOMALY": 264.5766,
    "EPHEMERIS_TYPE": 0,
    "CLASSIFICATION_TYPE": "U",
    "NORAD_CAT_ID": 50201,
    "ELEMENT_SET_NO": 999,
    "REV_AT_EPOCH": 8609,
    "BSTAR": -5.8708e-6,
    "MEAN_MOTION_DOT": -3.81e-6,
    "MEAN_MOTION_DDOT": 0
},{
    "OBJECT_NAME": "STARLINK-3256",
    "OBJECT_ID": "2021-125AY",
    "EPOCH": "2023-06-18T20:41:52.647360",
    "MEAN_MOTION": 15.08842356,
    "ECCENTRICITY": 0.0001064,
    "INCLINATION": 53.2169,
    "RA_OF_ASC_NODE": 25.0725,
    "ARG_OF_PERICENTER": 77.8304,
    "MEAN_ANOMALY": 282.2807,
    "EPHEMERIS_TYPE": 0,
    "CLASSIFICATION_TYPE": "U",
    "NORAD_CAT_ID": 50202,
    "ELEMENT_SET_NO": 999,
    "REV_AT_EPOCH": 8654,
    "BSTAR": 0.00014458,
    "MEAN_MOTION_DOT": 2.014e-5,
    "MEAN_MOTION_DDOT": 0
},{
    "OBJECT_NAME": "STARLINK-3257",
    "OBJECT_ID": "2021-125AZ",
    "EPOCH": "2023-06-19T00:29:43.598400",
    "MEAN_MOTION": 15.08850423,
    "ECCENTRICITY": 0.0001058,
    "INCLINATION": 53.2189,
    "RA_OF_ASC_NODE": 24.3605,
    "ARG_OF_PERICENTER": 92.6972,
    "MEAN_ANOMALY": 267.4141,
    "EPHEMERIS_TYPE": 0,
    "CLASSIFICATION_TYPE": "U",
    "NORAD_CAT_ID": 50203,
    "ELEMENT_SET_NO": 999,
    "REV_AT_EPOCH": 8349,
    "BSTAR": 7.6559e-5,
    "MEAN_MOTION_DOT": 9.31e-6,
    "MEAN_MOTION_DDOT": 0
},{
    "OBJECT_NAME": "STARLINK-3254",
    "OBJECT_ID": "2021-125BA",
    "EPOCH": "2023-06-18T20:53:50.627904",
    "MEAN_MOTION": 15.08847916,
    "ECCENTRICITY": 9.85e-5,
    "INCLINATION": 53.2168,
    "RA_OF_ASC_NODE": 25.0455,
    "ARG_OF_PERICENTER": 97.6051,
    "MEAN_ANOMALY": 262.5053,
    "EPHEMERIS_TYPE": 0,
    "CLASSIFICATION_TYPE": "U",
    "NORAD_CAT_ID": 50204,
    "ELEMENT_SET_NO": 999,
    "REV_AT_EPOCH": 8660,
    "BSTAR": 0.00020379,
    "MEAN_MOTION_DOT": 2.958e-5,
    "MEAN_MOTION_DDOT": 0
}]